STARLINK-35924          
1 66516U 25265A   25343.50002315 -.02031761  00000+0 -36362-1 0  9999
2 66516  42.9999  72.9733 0001503 276.6708 112.8031 15.52401125  4459
STARLINK-35937          
1 66517U 25265B   25343.50002315 -.02034019  00000+0 -36402-1 0  9994
2 66517  42.9998  72.9689 0001545 277.8688 113.5172 15.52404827  4473
STARLINK-35962          
1 66518U 25265C   25343.50002315 -.02029960  00000+0 -36325-1 0  9998
2 66518  42.9996  72.9639 0001551 277.9925 115.3120 15.52401705  4474
STARLINK-35931          
1 66519U 25265D   25343.50002315 -.02073607  00000+0 -37160-1 0  9994
2 66519  42.9999  72.9588 0001610 279.0062 116.2083 15.52432231  4478
STARLINK-35952          
1 66520U 25265E   25343.50002315 -.02029146  00000+0 -36310-1 0  9991
2 66520  42.9997  72.9538 0001520 278.2772 118.8620 15.52400557  4473
STARLINK-35915          
1 66521U 25265F   25343.50002315 -.02037723  00000+0 -36478-1 0  9997
2 66521  42.9999  72.9488 0001383 276.7270 122.3296 15.52405335  4471
STARLINK-35946          
1 66522U 25265G   25343.50002315 -.02028100  00000+0 -36290-1 0  9999
2 66522  42.9998  72.9440 0001536 278.4064 122.5668 15.52400025  4475
STARLINK-35969          
1 66523U 25265H   25343.50002315 -.02030226  00000+0 -36330-1 0  9997
2 66523  43.0000  72.9394 0001571 277.3857 125.5046 15.52401281  4475
STARLINK-35687          
1 66524U 25265J   25343.50002315 -.02087379  00000+0 -37446-1 0  9998
2 66524  42.9999  72.9345 0001580 279.1141 125.7040 15.52426446  4479
STARLINK-35975          
1 66525U 25265K   25343.50002315 -.02044208  00000+0 -36602-1 0  9996
2 66525  42.9996  72.9300 0001501 276.4965 130.2281 15.52408568  4478
STARLINK-35932          
1 66526U 25265L   25343.50002315 -.02028580  00000+0 -36301-1 0  9998
2 66526  42.9996  72.9252 0001550 279.9112 128.7311 15.52398926  4361
STARLINK-35935          
1 66527U 25265M   25343.50002315 -.02033686  00000+0 -36401-1 0  9993
2 66527  42.9996  72.9206 0001336 275.8104 134.7491 15.52402362  4477
